GAOFEN-1                
1 39150U 13018A   26168.94398090 -.00000068  00000+0 -24003-5 0  9995
2 39150  97.9097 240.9963 0015685 263.8797  96.0626 14.76535421708351
FENGYUN 4A              
1 41882U 16077A   26168.99263307 -.00000364  00000+0  00000+0 0  9998
2 41882   2.3256  80.2790 0008586 153.3107 153.7451  1.00268223 34935
FORMOSAT-5              
1 42920U 17049A   26168.88046274  .00000125  00000+0  42691-4 0  9993
2 42920  98.2255 244.1748 0012672  82.4479 277.8155 14.50899106466770
FENGYUN 3D              
1 43010U 17072A   26168.92258292 -.00000068  00000+0 -10503-4 0  9995
2 43010  99.0126 143.3584 0002537  61.5377 298.6054 14.19738837445098
GAOFEN-1 02             
1 43259U 18031A   26168.97620167  .00000180  00000+0  33292-4 0  9998
2 43259  98.0527 231.5011 0003814  31.8796 328.2644 14.76456194442814
GAOFEN-1 03             
1 43260U 18031B   26168.95434365  .00000563  00000+0  88340-4 0  9990
2 43260  98.0517 231.3378 0003729  77.5866 282.5761 14.76470090442801
FENGYUN 3E              
1 49008U 21062A   26168.97683248  .00000026  00000+0  33164-4 0  9990
2 49008  98.7487 172.3758 0002819  85.1425 275.0073 14.19904692256691
FENGYUN 3G              
1 56232U 23055A   26168.94312498  .00020737  00000+0  33622-3 0  9993
2 56232  49.9936 342.1251 0007017 299.5283  60.4984 15.52659550180127
FENGYUN 3F              
1 57490U 23111A   26168.96073255  .00000031  00000+0  34895-4 0  9999
2 57490  98.6836 238.9550 0001593  92.8881 267.2478 14.19939198148972
FENGYUN 3H              
1 65815U 25219A   26168.81618521  .00000037  00000+0  37845-4 0  9999
2 65815  98.6768 109.5731 0001591  76.2688 283.8666 14.19920549 37474
